StoreName,StoreType,StoreOpeningDate,Address,City,State,Country,Region,Manager Name
The Elegant Essentials,SMB,2015-04-19,0226 Molly Street West Adamland  MP 53504,North Aaron,California,Togo,South,Sandra
The Cozy Nook,SMB,1978-10-21,29795 Allison Corner Elizabethborough  NY 06431,Lake Kristine,Idaho,Argentina,West,Marisa
The Unique Oasis,MBO,2024-11-17,27023 Ramsey Rest East Nicholastown  MT 34436,East Thomasmouth,Illinois,Peru,North,Katelyn
The Purely Quest,SMB,2012-08-03,770 Mendez Circle Craighaven  CT 56073,Stricklandshire,Colorado,Morocco,East,Cody
The Happy Reflections,Exclusive,2003-10-10,99393 James Lodge Jeffview  IL 53921,Paulhaven,North Carolina,United States Minor Outlying Islands,South,Kimberly
The Dapper Cabinet,Exclusive,2023-01-15,PSC 6616  Box 3340 APO AA 78431,East Phillip,Alaska,Liechtenstein,East,Gregory
The Rustic Emporium,Exclusive,2001-09-18,483 Cox Club South Tara  AK 93073,Elliottberg,New Mexico,Lebanon,East,Paul
The Classy Creations,MBO,1981-03-26,3526 Tracey Wall Suite 515 Charleston  MP 44816,Natalieland,Iowa,Monaco,North,Michael
The Serene Haven,MBO,1978-10-28,Unit 6766 Box 5996 DPO AE 89742,Port Lisashire,Washington,Oman,South,Heather
The Luxe Marketplace,SMB,1976-04-01,1022 Thomas Stream Suite 461 Allenhaven  AS 56998,Nunezside,Nebraska,Suriname,South,Tanya
The Golden Merchant,MBO,1977-11-10,084 Mark Route Apt. 564 West Julia  VT 63881,Port Ryan,Tennessee,Suriname,West,Maxwell
The Chic Avenue,Exclusive,1994-08-30,037 Robert Corner Port Jessica  MH 70499,New Amandamouth,Maryland,Andorra,West,Grant
The Luxe Marketplace,Exclusive,2016-02-13,9592 Gray Key Samanthatown  PW 55660,New Robertchester,Kansas,Zambia,South,Destiny
The Trendy Corner,SMB,2004-08-06,02788 Jonathan Squares Suite 522 Stephaniemouth  MN 72402,Robertsview,Florida,Anguilla,East,Amanda
The Polished Loft,SMB,1978-02-08,8502 Brown Parks Heidifurt  AS 92778,Kelseychester,Utah,Turkmenistan,East,Amanda
The Rustic Emporium,Outlet Stores,2010-06-16,403 Hatfield Streets Newmanport  FM 41370,East Amy,Michigan,Hong Kong,West,Hannah
The Stylish Elegance,Exclusive,2020-07-19,796 Harrison Wall Lake Victoriaside  IL 80740,Jasonshire,Virginia,India,West,Amanda
The Radiant Shoppe,Outlet Stores,1974-03-25,3940 Crosby Club Lawrenceburgh  WA 60028,Edwardville,New Mexico,Madagascar,West,Amanda
The Urban Treasures,MBO,2018-06-07,210 Smith Oval Suite 513 West Katherinefort  FM 71846,Port David,North Carolina,Angola,North,Nancy
The Modern Marvels,MBO,1976-01-16,323 Lee Brooks West Andrew  NM 74706,East Toddton,Delaware,Guadeloupe,East,Denise
The Happy Reflections,SMB,1995-01-31,0957 Clements Causeway East Joshuashire  IN 87009,Normanside,Idaho,Vanuatu,South,Brianna
The Unique Oasis,SMB,2006-03-24,9305 Wright Rapids Marilynstad  GA 13120,Hullfurt,Illinois,Kenya,North,Joseph
The Majestic Finds,MBO,1980-06-24,0462 Horn Islands Suite 388 Lewisborough  AS 92679,South Willie,Mississippi,Palestinian Territory,South,Ann
The Artisan Deals,SMB,1971-02-04,42501 Samantha Glens Lake Katherineton  WA 33160,South Timothy,Michigan,Guyana,East,Jesus
The Serene Haven,MBO,1996-05-12,838 Lori View Apt. 210 Josephtown  WY 17101,Davidport,Connecticut,Libyan Arab Jamahiriya,East,Jack
The Timeless Hub,SMB,1995-07-09,389 Nancy Lock Suite 520 Parkerbury  PR 29649,Browninghaven,Vermont,Congo,South,Nicole
The Purely Quest,SMB,1978-05-28,5872 Amy Mission Rodgersfort  MO 20622,West Benjamin,Washington,Cayman Islands,South,Cameron
The Trendy Corner,MBO,1985-05-10,Unit 3082 Box 3929 DPO AP 83934,New Christianport,Georgia,Tonga,North,Leslie
The Artisan Deals,Exclusive,1972-09-09,35793 Annette Pike Suite 289 East Lisaville  NC 21683,Brennanside,New Hampshire,Colombia,East,Cindy
The Serene Haven,Exclusive,2000-02-18,8153 Timothy Rapid Suite 857 Lake Jimmymouth  WI 60990,Andersonmouth,Oklahoma,Mauritania,South,Kimberly
The Happy Reflections,MBO,2003-07-05,704 Chad Viaduct South Kenneth  AL 34229,New Christineberg,Wyoming,United States Minor Outlying Islands,West,Philip
The Radiant Shoppe,MBO,1970-07-01,929 David Forest Apt. 532 Port Diane  AR 85747,Smithtown,Colorado,Antarctica (the territory South of 60 deg S),East,John
The Timeless Hub,SMB,2005-02-28,47664 Hill Junctions South Victoria  IL 90344,East Mary,Florida,Wallis and Futuna,South,Frank
The Eclectic Enclave,Outlet Stores,1970-05-11,186 Randy Crest Suite 117 Lake Ryanstad  WY 30222,Hawkinsstad,Kansas,Isle of Man,East,Brent
The Urban Treasures,MBO,1982-12-08,35695 Chelsea Gardens Scottshire  NH 02133,Catherinechester,Oklahoma,Holy See (Vatican City State),West,Dennis
The Urban Treasures,Outlet Stores,2020-07-15,7758 Karen Rapid Apt. 882 Billyburgh  MA 08835,Chapmanfort,Nevada,Martinique,East,Shawn
The Enchanted Sanctuary,Outlet Stores,1980-09-02,1098 Jordan Station Apt. 844 Shawnside  VI 17258,Port Mary,Oklahoma,Sri Lanka,West,Tommy
The Classy Creations,Exclusive,2018-11-19,4172 Kenneth Skyway Apt. 523 Lake Sheilahaven  MO 43817,Dariusville,Illinois,Greenland,South,Sara
The Eclectic Enclave,Exclusive,1991-03-31,831 Larsen Alley Foxside  AK 11868,Rebeccaview,Massachusetts,Congo,East,Robert
The Happy Reflections,SMB,1993-11-26,172 Catherine Track Edwardtown  WY 66520,Danielsshire,Pennsylvania,Gambia,North,Jessica
The Luxe Marketplace,Exclusive,1989-05-03,297 Paul Roads Kristystad  RI 98804,Patelburgh,New Hampshire,Guam,South,Michelle
The Chic Avenue,Outlet Stores,2000-10-13,57879 Martinez Forks Jameschester  IL 49346,Port Robert,Connecticut,Burkina Faso,North,Ruth
The Cozy Nook,Exclusive,1988-09-28,12696 Morgan Lodge Lake Anthonyview  MS 72937,Frankstad,Pennsylvania,Spain,South,Patrick
The Golden Merchant,SMB,1979-08-14,43943 Anthony Mission Suite 991 Debrabury  VT 08630,Joneston,Indiana,Macao,West,Sharon
The Urban Treasures,Outlet Stores,2020-06-03,98395 Monica Hills Smallfort  VT 09172,New David,West Virginia,Greece,East,Joann
The Harmony Perfection,Outlet Stores,2011-05-09,78478 Jeremy Street Suite 389 Seanland  HI 66142,West Carlosshire,Maryland,Estonia,South,Tony
The Modern Marvels,MBO,2020-06-22,37293 Olson Greens Gregoryfort  TN 95806,Stephanieland,Idaho,Montenegro,East,Alexander
The Elegant Essentials,Exclusive,2012-05-03,8175 Santiago Garden Apt. 556 West Devinhaven  CA 98291,South Douglasside,Connecticut,Italy,South,James
The Stylish Elegance,MBO,1988-12-13,USNV Tate FPO AP 76724,Port Michelemouth,Illinois,Micronesia,South,Bianca
The Harmony Perfection,Outlet Stores,2024-03-01,22988 Jennifer Via South Morgan  HI 01487,Fosterville,Alabama,Nauru,West,Michael
The Whimsy Closet,Outlet Stores,1994-08-21,3214 Manning Rapid Apt. 358 Johnville  CT 37542,East Thomasberg,Wisconsin,Cote d'Ivoire,South,Jennifer
The Golden Merchant,SMB,1994-05-07,6774 Victor Inlet Apt. 112 Jennybury  VT 52506,East Marco,Alabama,Eritrea,East,Joseph
The Luxe Marketplace,MBO,1985-11-12,87402 Gary Pines Suite 207 Toddbury  AK 06193,Ericton,New Hampshire,Solomon Islands,West,Michael
The Cozy Nook,MBO,1977-02-22,365 Shelton View Suite 792 Jennyborough  CO 76672,East Kimberlyville,Oregon,Comoros,South,Debra
The Shimmer Shop,SMB,2018-12-29,094 Anthony Parkway Suite 579 Douglasport  NE 26573,Eileenhaven,Alabama,United States of America,West,Diana
The Chic Avenue,Exclusive,1985-07-30,986 Murray Forks New Dawnmouth  MH 94166,Port Robert,Delaware,Comoros,North,Elizabeth
The Artisan Deals,Exclusive,1989-10-31,773 Hernandez Mission Joseview  OH 65921,Port Brianmouth,Illinois,Romania,West,John
The Stylish Elegance,SMB,2012-04-15,340 Owens Forge Lake Kathrynbury  MT 71762,South Ebony,Illinois,American Samoa,North,Nicole
The Serene Haven,Outlet Stores,2010-01-02,71650 Wendy Key Lopezborough  SD 52616,Jacksontown,Massachusetts,Korea,South,Michael
The Stylish Elegance,MBO,2023-08-06,5946 Barbara Ridge Suite 170 West Casey  HI 37674,Longland,Kentucky,Canada,West,Nicholas
The Dapper Cabinet,SMB,2003-07-27,08260 Stokes Place North Chad  HI 26962,Curtisfort,Wyoming,Guatemala,East,Jessica
The Classy Creations,Outlet Stores,1992-11-16,972 Meadows Ranch Madelineburgh  OK 95991,South Richard,Indiana,Ecuador,West,Katherine
The Majestic Finds,Outlet Stores,1997-11-16,5966 Jones Highway Rodgersport  OK 82335,North Josephshire,Pennsylvania,Yemen,West,Marissa
The Unique Oasis,Outlet Stores,1991-11-21,809 Kelsey Ramp Apt. 750 East Jeremy  IL 33910,Amyberg,Georgia,Sudan,West,Daniel
The Harmony Perfection,SMB,1985-05-09,408 Thomas Shore Apt. 131 Ebonymouth  ME 64374,New Katrina,Indiana,Kuwait,West,Brian
The Rustic Emporium,SMB,1995-06-11,219 Johnson Glens West Tammy  ND 15228,Smithland,Michigan,Western Sahara,North,Eric
The Harmony Perfection,Exclusive,2005-10-23,803 Gonzalez Plains Lake Jenniferville  GU 68719,West Jesseberg,West Virginia,New Caledonia,South,Erica
The Classy Creations,Exclusive,1996-04-14,Unit 5697 Box 0084 DPO AE 16768,Lake Brianport,Ohio,Seychelles,West,Michael
The Chic Avenue,Outlet Stores,2016-06-09,5801 Morales Flats Debrachester  NJ 89654,Campbelltown,Arizona,Tanzania,West,Dana
The Enchanted Sanctuary,MBO,1974-11-11,06938 Ware Shoals Roytown  ME 15867,New Julieland,Rhode Island,Armenia,North,Julie
The Golden Merchant,SMB,1991-06-06,Unit 3700 Box 7148 DPO AE 12591,North Mollyfurt,Kentucky,Mali,South,William
The Golden Merchant,Outlet Stores,1988-01-08,2335 Richard Points Port Dennisland  AL 25961,Lake Brett,Michigan,Saint Pierre and Miquelon,South,Kaitlyn
The Rustic Emporium,MBO,1987-09-26,PSC 5369  Box 2286 APO AE 40351,West Suzanneville,Alabama,Dominican Republic,East,Catherine
The Vintage Vault,Exclusive,1995-07-27,1989 Thompson Islands Apt. 403 North David  ME 99369,Amyberg,Minnesota,French Guiana,North,Jeffrey
The Polished Loft,MBO,1988-03-22,76969 Brown Tunnel West Luke  NJ 26770,South Kendraport,New Hampshire,Cook Islands,East,Shannon
The Chic Avenue,SMB,2021-11-03,545 Joseph Coves Suite 918 Davisburgh  AK 48998,North Laurenport,California,Estonia,East,Jonathan
The Eclectic Enclave,Outlet Stores,2007-12-13,3290 Rivera Dam East Brent  MD 52320,Geraldmouth,Colorado,Macao,South,Cody
The Vintage Vault,SMB,2011-02-14,71048 Edward Route Apt. 889 Port Derek  MD 72631,Grahamstad,Florida,Bahamas,South,Christopher
The Radiant Shoppe,Outlet Stores,2011-07-23,2826 Watkins Crest Lake Matthew  UT 87183,Port Marymouth,South Carolina,Zambia,East,Robin
The Luxe Marketplace,SMB,1976-07-15,054 Campbell Cliffs Wattschester  OH 75677,Halestad,Connecticut,Croatia,West,Charles
The Rustic Emporium,Outlet Stores,2003-03-09,2406 Jones Plains Apt. 357 Woodsview  FL 27930,Adamsfort,Rhode Island,Maldives,East,Nicholas
The Majestic Finds,SMB,2018-05-28,3840 Santana Road Ashleybury  OH 87942,New Katelyn,South Carolina,Djibouti,West,Kenneth
The Happy Reflections,SMB,1973-08-12,0403 Miller Shores Apt. 116 Hollybury  RI 98057,Lake Deborahhaven,Delaware,Solomon Islands,East,Teresa
The Elegant Essentials,Outlet Stores,1981-10-18,047 Gomez Estates Thomasstad  MS 47691,East Sharontown,Michigan,Bosnia and Herzegovina,East,Diana
The Happy Reflections,Outlet Stores,1999-05-12,4798 Baker Glen Apt. 684 Brownburgh  AL 47969,West Robert,Florida,Djibouti,North,Shelby
The Luxe Marketplace,Outlet Stores,2006-01-12,71477 Campbell Parkways Apt. 699 Lake Paulton  RI 94665,Lake Lisa,Oregon,Bangladesh,West,Denise
The Cozy Nook,Exclusive,2009-07-12,0221 Christopher Drive Suite 538 Santosfurt  PW 10621,Millerfort,Georgia,Syrian Arab Republic,East,Melissa
The Eclectic Enclave,MBO,2003-09-09,248 Leach Freeway Port Michaeltown  MD 44963,Ivanville,Tennessee,Faroe Islands,West,Emily
The Urban Treasures,SMB,2007-10-27,719 Steven Club Apt. 988 Lake Andrea  IA 64271,North Sheila,Colorado,Niue,North,Kenneth
The Majestic Finds,Exclusive,2012-06-23,1130 Morris Cove Suite 195 Jonesberg  MA 96166,Tuckerville,Florida,Micronesia,North,Brian
The Artisan Deals,Outlet Stores,1986-03-08,953 Nunez Way Suite 685 Marioberg  WY 85863,Mclaughlinton,Louisiana,Thailand,South,Shannon
The Modern Marvels,MBO,1984-07-03,0061 Anthony Mission Suite 690 North Christopher  MT 44860,Port Deanna,Washington,Maldives,North,Nicole
The Eclectic Enclave,Outlet Stores,2016-07-09,99402 Nicholas Tunnel South Jessica  WY 76190,Alejandrofurt,Delaware,Romania,West,Jeffery
The Radiant Shoppe,Outlet Stores,2015-03-10,9872 Samantha Passage South Jerryview  MI 68570,East Erica,Virginia,Uganda,South,Veronica
The Stylish Elegance,SMB,1997-02-28,46611 Martinez Stravenue Pittsfurt  RI 46291,Lake Hayleyborough,Maryland,French Southern Territories,South,Erin
The Shimmer Shop,MBO,1975-11-25,0053 Caleb Crossroad Apt. 173 Caseymouth  IN 88347,Hodgebury,Minnesota,United Arab Emirates,West,Drew
The Golden Merchant,SMB,2016-08-09,42106 Ramos Road Michellefurt  OR 76006,Justinchester,Iowa,Saint Barthelemy,East,Mary
The Eclectic Enclave,SMB,2016-09-24,8564 Brandy Roads Suite 114 Fieldsland  MT 70934,Meredithmouth,Montana,Reunion,South,Shelley
The Stylish Elegance,Outlet Stores,1971-11-27,87759 Patrick Turnpike Suite 060 East Michael  WV 53972,West Eric,Georgia,Chad,East,Jason
The Luxe Marketplace,Outlet Stores,1983-05-24,884 Katherine Tunnel South Reginald  ME 82343,Marthaburgh,Idaho,Malta,East,David
